ONEWEB-0205             
1 48226U 21031S   24342.56452092 -.00000028  00000+0 -11001-3 0  9994
2 48226  87.9017  40.3839 0001774 107.2855 252.8469 13.14504497175142
ONEWEB-0206             
1 48227U 21031T   24342.53756221  .00000176  00000+0  44072-3 0  9999
2 48227  87.9013  40.3743 0001858 107.5189 252.6144 13.14503271175090
ONEWEB-0182             
1 48228U 21031U   24342.45668511  .00000136  00000+0  33157-3 0  9993
2 48228  87.9017  40.4249 0001912  98.4016 261.7330 13.14503104175290
ONEWEB-0186             
1 48229U 21031V   24342.54392201  .00000273  00000+0  70126-3 0  9993
2 48229  87.9017  40.3703 0001733 103.4951 256.6372 13.14504706175255
ONEWEB-0181             
1 48230U 21031W   24342.44558080  .00000038  00000+0  68812-4 0  9992
2 48230  87.9016  40.4603 0001621 103.5536 256.5774 13.14502639175092
ONEWEB-0188             
1 48231U 21031X   24342.55976606  .00000050  00000+0  10114-3 0  9998
2 48231  87.9018  40.4314 0001775 101.8780 258.2549 13.14503828175018
ONEWEB-0220             
1 48232U 21031Y   24342.44717280  .00000044  00000+0  84232-4 0  9994
2 48232  87.9010  40.4081 0001849 111.3179 248.8148 13.14503662175265
ONEWEB-0165             
1 48233U 21031Z   24342.55183745  .00000294  00000+0  75983-3 0  9999
2 48233  87.9017  40.4155 0001681 106.8060 253.3254 13.14502966175239
